{
  "type": "FeatureCollection",
  "features": [
    {
      "type": "Feature",
      "properties": {
        "norad_id": 35797,
        "name": "IRIDIUM 33 DEB",
        "group": "iridium-33-debris",
        "lat": 32.80086113196635,
        "lon": -33.48270295708225,
        "alt_km": 614.9271255356152,
        "timestamp": "2025-12-25T09:48:52.675059+00:00",
        "meta_object_name": "IRIDIUM 33 DEB",
        "meta_object_id": "1997-051SF",
        "meta_epoch": "2025-12-24T04:31:08.009760",
        "meta_mean_motion": 14.83053483,
        "meta_eccentricity": 0.00148415,
        "meta_inclination": 86.3359,
        "meta_ra_of_asc_node": 324.7113,
        "meta_arg_of_pericenter": 111.7452,
        "meta_mean_anomaly": 248.5352,
        "meta_ephemeris_type": 0,
        "meta_classification_type": "U",
        "meta_norad_cat_id": 35797,
        "meta_element_set_no": 999,
        "meta_rev_at_epoch": 87510,
        "meta_bstar": 0.0020206958,
        "meta_mean_motion_dot": 0.00016516,
        "meta_mean_motion_ddot": 0,
        "tle_line1": "1 35797U 97051SF  25358.18828715  .00016516  00000+0  20207-2 0  9997",
        "tle_line2": "2 35797  86.3359 324.7113 0014841 111.7452 248.5352 14.83053483875106"
      },
      "geometry": {
        "type": "Point",
        "coordinates": [
          -33.48270295708225,
          32.80086113196635
        ]
      }
    },
    {
      "type": "Feature",
      "properties": {
        "norad_id": 35806,
        "name": "IRIDIUM 33 DEB",
        "group": "iridium-33-debris",
        "lat": -76.26349703835334,
        "lon": -149.78555662539756,
        "alt_km": 717.0475546722528,
        "timestamp": "2025-12-25T09:48:52.675069+00:00",
        "meta_object_name": "IRIDIUM 33 DEB",
        "meta_object_id": "1997-051SQ",
        "meta_epoch": "2025-12-23T18:44:28.886496",
        "meta_mean_motion": 14.57443021,
        "meta_eccentricity": 0.00152726,
        "meta_inclination": 86.3434,
        "meta_ra_of_asc_node": 15.7661,
        "meta_arg_of_pericenter": 41.8859,
        "meta_mean_anomaly": 318.3515,
        "meta_ephemeris_type": 0,
        "meta_classification_type": "U",
        "meta_norad_cat_id": 35806,
        "meta_element_set_no": 999,
        "meta_rev_at_epoch": 86485,
        "meta_bstar": 0.0011018111,
        "meta_mean_motion_dot": 5.028e-05,
        "meta_mean_motion_ddot": 0,
        "tle_line1": "1 35806U 97051SQ  25357.78088989  .00005028  00000+0  11018-2 0  9990",
        "tle_line2": "2 35806  86.3434  15.7661 0015272  41.8859 318.3515 14.57443021864858"
      },
      "geometry": {
        "type": "Point",
        "coordinates": [
          -149.78555662539756,
          -76.26349703835334
        ]
      }
    },
    {
      "type": "Feature",
      "properties": {
        "norad_id": 35809,
        "name": "IRIDIUM 33 DEB",
        "group": "iridium-33-debris",
        "lat": 20.190973619551052,
        "lon": -29.06895733063639,
        "alt_km": 649.4696751468255,
        "timestamp": "2025-12-25T09:48:52.675079+00:00",
        "meta_object_name": "IRIDIUM 33 DEB",
        "meta_object_id": "1997-051ST",
        "meta_epoch": "2025-12-21T16:13:39.380736",
        "meta_mean_motion": 14.75870585,
        "meta_eccentricity": 0.00102664,
        "meta_inclination": 86.3279,
        "meta_ra_of_asc_node": 331.2775,
        "meta_arg_of_pericenter": 205.8578,
        "meta_mean_anomaly": 154.2129,
        "meta_ephemeris_type": 0,
        "meta_classification_type": "U",
        "meta_norad_cat_id": 35809,
        "meta_element_set_no": 999,
        "meta_rev_at_epoch": 86939,
        "meta_bstar": 0.0013721853,
        "meta_mean_motion_dot": 9.452e-05,
        "meta_mean_motion_ddot": 0,
        "tle_line1": "1 35809U 97051ST  25355.67615024  .00009452  00000+0  13722-2 0  9994",
        "tle_line2": "2 35809  86.3279 331.2775 0010266 205.8578 154.2129 14.75870585869399"
      },
      "geometry": {
        "type": "Point",
        "coordinates": [
          -29.06895733063639,
          20.190973619551052
        ]
      }
    },
    {
      "type": "Feature",
      "properties": {
        "norad_id": 35846,
        "name": "IRIDIUM 33 DEB",
        "group": "iridium-33-debris",
        "lat": 64.9172351386353,
        "lon": -134.35288600723317,
        "alt_km": 728.118660490376,
        "timestamp": "2025-12-25T09:48:52.675089+00:00",
        "meta_object_name": "IRIDIUM 33 DEB",
        "meta_object_id": "1997-051SW",
        "meta_epoch": "2025-12-24T21:38:12.688800",
        "meta_mean_motion": 14.43199531,
        "meta_eccentricity": 0.0019834,
        "meta_inclination": 86.3738,
        "meta_ra_of_asc_node": 53.6502,
        "meta_arg_of_pericenter": 132.6503,
        "meta_mean_anomaly": 227.6373,
        "meta_ephemeris_type": 0,
        "meta_classification_type": "U",
        "meta_norad_cat_id": 35846,
        "meta_element_set_no": 999,
        "meta_rev_at_epoch": 71504,
        "meta_bstar": 0.00052874,
        "meta_mean_motion_dot": 1.8e-05,
        "meta_mean_motion_ddot": 0,
        "tle_line1": "1 35846U 97051SW  25358.90153575  .00001800  00000+0  52874-3 0  9993",
        "tle_line2": "2 35846  86.3738  53.6502 0019834 132.6503 227.6373 14.43199531715046"
      },
      "geometry": {
        "type": "Point",
        "coordinates": [
          -134.35288600723317,
          64.9172351386353
        ]
      }
    },
    {
      "type": "Feature",
      "properties": {
        "norad_id": 35848,
        "name": "IRIDIUM 33 DEB",
        "group": "iridium-33-debris",
        "lat": 73.00935114156894,
        "lon": 178.4997507587107,
        "alt_km": 620.9386659851307,
        "timestamp": "2025-12-25T09:48:52.675099+00:00",
        "meta_object_name": "IRIDIUM 33 DEB",
        "meta_object_id": "1997-051SY",
        "meta_epoch": "2025-12-23T08:36:58.937472",
        "meta_mean_motion": 14.78845827,
        "meta_eccentricity": 0.00091619,
        "meta_inclination": 86.3897,
        "meta_ra_of_asc_node": 11.347,
        "meta_arg_of_pericenter": 152.9599,
        "meta_mean_anomaly": 207.2101,
        "meta_ephemeris_type": 0,
        "meta_classification_type": "U",
        "meta_norad_cat_id": 35848,
        "meta_element_set_no": 999,
        "meta_rev_at_epoch": 66847,
        "meta_bstar": 0.0014935306,
        "meta_mean_motion_dot": 0.00011029,
        "meta_mean_motion_ddot": 0,
        "tle_line1": "1 35848U 97051SY  25357.35901548  .00011029  00000+0  14935-2 0  9993",
        "tle_line2": "2 35848  86.3897  11.3470 0009161 152.9599 207.2101 14.78845827668472"
      },
      "geometry": {
        "type": "Point",
        "coordinates": [
          178.4997507587107,
          73.00935114156894
        ]
      }
    },
    {
      "type": "Feature",
      "properties": {
        "norad_id": 35850,
        "name": "IRIDIUM 33 DEB",
        "group": "iridium-33-debris",
        "lat": 79.79324424002543,
        "lon": -0.7547893730725034,
        "alt_km": 621.1186581859429,
        "timestamp": "2025-12-25T09:48:52.675109+00:00",
        "meta_object_name": "IRIDIUM 33 DEB",
        "meta_object_id": "1997-051TA",
        "meta_epoch": "2025-12-23T16:51:33.482304",
        "meta_mean_motion": 14.79050016,
        "meta_eccentricity": 0.00107739,
        "meta_inclination": 86.3501,
        "meta_ra_of_asc_node": 339.2572,
        "meta_arg_of_pericenter": 146.4147,
        "meta_mean_anomaly": 213.7758,
        "meta_ephemeris_type": 0,
        "meta_classification_type": "U",
        "meta_norad_cat_id": 35850,
        "meta_element_set_no": 999,
        "meta_rev_at_epoch": 71519,
        "meta_bstar": 0.001670653,
        "meta_mean_motion_dot": 0.00012399,
        "meta_mean_motion_ddot": 0,
        "tle_line1": "1 35850U 97051TA  25357.70247086  .00012399  00000+0  16707-2 0  9995",
        "tle_line2": "2 35850  86.3501 339.2572 0010773 146.4147 213.7758 14.79050016715191"
      },
      "geometry": {
        "type": "Point",
        "coordinates": [
          -0.7547893730725034,
          79.79324424002543
        ]
      }
    },
    {
      "type": "Feature",
      "properties": {
        "norad_id": 35915,
        "name": "IRIDIUM 33 DEB",
        "group": "iridium-33-debris",
        "lat": 71.3300690526631,
        "lon": 146.26164799444473,
        "alt_km": 612.0354880083705,
        "timestamp": "2025-12-25T09:48:52.675119+00:00",
        "meta_object_name": "IRIDIUM 33 DEB",
        "meta_object_id": "1997-051TY",
        "meta_epoch": "2025-12-22T16:27:49.238784",
        "meta_mean_motion": 14.80964903,
        "meta_eccentricity": 0.00122455,
        "meta_inclination": 86.3447,
        "meta_ra_of_asc_node": 338.4114,
        "meta_arg_of_pericenter": 150.5648,
        "meta_mean_anomaly": 209.6266,
        "meta_ephemeris_type": 0,
        "meta_classification_type": "U",
        "meta_norad_cat_id": 35915,
        "meta_element_set_no": 999,
        "meta_rev_at_epoch": 8233,
        "meta_bstar": 0.0017914035,
        "meta_mean_motion_dot": 0.00013917,
        "meta_mean_motion_ddot": 0,
        "tle_line1": "1 35915U 97051TY  25356.68598656  .00013917  00000+0  17914-2 0  9993",
        "tle_line2": "2 35915  86.3447 338.4114 0012245 150.5648 209.6266 14.80964903 82335"
      },
      "geometry": {
        "type": "Point",
        "coordinates": [
          146.26164799444473,
          71.3300690526631
        ]
      }
    }
  ]
}